NORAD_CAT_ID,OBJECT_NAME,OBJECT_TYPE,EPOCH,MEAN_MOTION,ECCENTRICITY,INCLINATION,RA_OF_ASC_NODE,ARG_OF_PERICENTER,MEAN_ANOMALY,BSTAR,MEAN_MOTION_DOT,MEAN_MOTION_DDOT,TLE_LINE0,TLE_LINE1,TLE_LINE2,SEMIMAJOR_AXIS,PERIOD,APOGEE,PERIGEE,DECAYED
54080.0,STARLINK-5160,PAYLOAD,2022-12-23 13:09:03,15.08827174,0.0001605,53.2158,201.5461,65.093,295.0229,0.00012713,1.735e-05,0.0,0 STARLINK-5160,1 54080U 22136AF  22357.54796010  .00001735  00000-0  12713-3 0  9995,2 54080  53.2158 201.5461 0001605  65.0930 295.0229 15.08827174 10437,6917.92,95.438,540.895,538.674,0.0
54080.0,STARLINK-5160,PAYLOAD,2022-12-24 06:38:18,15.08836614,0.0001667,53.2152,198.2759,60.8201,299.2958,0.0001631,2.308e-05,0.0,0 STARLINK-5160,1 54080U 22136AF  22358.27659728  .00002308  00000-0  16310-3 0  9994,2 54080  53.2152 198.2759 0001667  60.8201 299.2958 15.08836614 10541,6917.891,95.438,540.909,538.6030000000002,0.0
54080.0,STARLINK-5160,PAYLOAD,2022-12-24 17:45:59,15.08843677,0.0001771999999999,53.216,196.1937,63.2162,296.9011,0.00014727,2.057e-05,0.0,0 STARLINK-5160,1 54080U 22136AF  22358.74027417  .00002057  00000-0  14727-3 0  9991,2 54080  53.2160 196.1937 0001772  63.2162 296.9011 15.08843677 10131,6917.869000000002,95.437,540.96,538.508,0.0
54080.0,STARLINK-5160,PAYLOAD,2022-12-25 06:29:04,15.08856902,0.0001806,53.2164,193.8153,63.5801,296.5377,1.9399e-05,2.1e-07,0.0,0 STARLINK-5160,1 54080U 22136AF  22359.27018788  .00000021  00000-0  19399-4 0  9991,2 54080  53.2164 193.8153 0001806  63.5801 296.5377 15.08856902 10697,6917.829000000002,95.436,540.943,538.444,0.0
54080.0,STARLINK-5160,PAYLOAD,2022-12-25 12:50:37,15.08843642,0.0001723,53.2167,192.626,65.2228,294.8943,8.5386e-05,1.071e-05,0.0,0 STARLINK-5160,1 54080U 22136AF  22359.53515351  .00001071  00000-0  85386-4 0  9993,2 54080  53.2167 192.6260 0001723  65.2228 294.8943 15.08843642 10738,6917.869000000002,95.437,540.9259999999998,538.5419999999998,0.0
54080.0,STARLINK-5160,PAYLOAD,2022-12-25 19:12:10,15.08837118,0.0001706,53.2174,191.4366,64.9151,295.2018,4.0853e-05,3.62e-06,0.0,0 STARLINK-5160,1 54080U 22136AF  22359.80011888  .00000362  00000-0  40853-4 0  9991,2 54080  53.2174 191.4366 0001706  64.9151 295.2018 15.08837118 10775,6917.889,95.438,540.934,538.5740000000002,0.0
54080.0,STARLINK-5160,PAYLOAD,2022-12-26 12:41:24,15.08842937,0.000171,53.217,188.1651,65.0735,295.0435,1.0239e-05,-1.25e-06,0.0,0 STARLINK-5160,1 54080U 22136AF  22360.52875524 -.00000125  00000-0  10239-4 0  9990,2 54080  53.2170 188.1651 0001710  65.0735 295.0435 15.08842937 10402,6917.871,95.437,540.919,538.553,0.0
54080.0,STARLINK-5160,PAYLOAD,2022-12-26 22:13:43,15.08846098,0.0001704,53.2168,186.3805,67.0998,293.0174,3.0355e-06,-2.4e-06,0.0,0 STARLINK-5160,1 54080U 22136AF  22360.92619234 -.00000240  00000-0  30355-5 0  9998,2 54080  53.2168 186.3805 0001704  67.0998 293.0174 15.08846098 10945,6917.861999999999,95.437,540.906,538.548,0.0
54080.0,STARLINK-5160,PAYLOAD,2022-12-27 06:10:38,15.08846573,0.0001699,53.2172,184.8937,67.4097,292.7075,1.332e-06,-2.67e-06,0.0,0 STARLINK-5160,1 54080U 22136AF  22361.25739049 -.00000267  00000-0  13320-5 0  9994,2 54080  53.2172 184.8937 0001699  67.4097 292.7075 15.08846573 10513,6917.86,95.437,540.901,538.55,0.0
54080.0,STARLINK-5160,PAYLOAD,2022-12-27 18:53:43,15.08845961,0.0001686999999999,53.2167,182.515,64.8549,295.2618,0.0001045,1.376e-05,0.0,0 STARLINK-5160,1 54080U 22136AF  22361.78730619  .00001376  00000-0  10450-3 0  9996,2 54080  53.2167 182.5150 0001687  64.8549 295.2618 15.08845961 10598,6917.861999999999,95.437,540.894,538.56,0.0
54080.0,STARLINK-5160,PAYLOAD,2022-12-28 12:22:57,15.08844153,0.0001691,53.2164,179.2443,63.2433,296.8731,7.5682e-05,9.17e-06,0.0,0 STARLINK-5160,1 54080U 22136AF  22362.51594651  .00000917  00000-0  75682-4 0  9991,2 54080  53.2164 179.2443 0001691  63.2433 296.8731 15.08844153 10701,6917.868,95.437,540.903,538.563,0.0
54080.0,STARLINK-5160,PAYLOAD,2022-12-28 15:33:44,15.08838848,0.0001671,53.2163,178.6497,61.8316,298.2844,3.3222e-05,2.41e-06,0.0,0 STARLINK-5160,1 54080U 22136AF  22362.64843074  .00000241  00000-0  33222-4 0  9995,2 54080  53.2163 178.6497 0001671  61.8316 298.2844 15.08838848 10721,6917.884,95.438,540.905,538.5930000000002,0.0
54080.0,STARLINK-5160,PAYLOAD,2022-12-29 12:13:44,15.088439800000002,0.0001676999999999,53.2168,174.7831,61.0418,299.0743,3.0473e-05,1.97e-06,0.0,0 STARLINK-5160,1 54080U 22136AF  22363.50954674  .00000197  00000-0  30473-4 0  9995,2 54080  53.2168 174.7831 0001677  61.0418 299.0743 15.08843980 10850,6917.868,95.437,540.893,538.573,0.0
54080.0,STARLINK-5160,PAYLOAD,2022-12-29 15:24:31,15.08844046,0.0001683,53.2168,174.1882,61.4482,298.668,2.9847e-05,1.87e-06,0.0,0 STARLINK-5160,1 54080U 22136AF  22363.64202632  .00000187  00000-0  29847-4 0  9992,2 54080  53.2168 174.1882 0001683  61.4482 298.6680 15.08844046 11357,6917.868,95.437,540.8969999999998,538.569,0.0
54080.0,STARLINK-5160,PAYLOAD,2022-12-30 04:07:37,15.08832936,0.0001691,53.2168,171.8099,57.7412,302.3744,-7.0312e-05,-1.407e-05,0.0,0 STARLINK-5160,1 54080U 22136AF  22364.17195679 -.00001407  00000-0 -70312-4 0  9994,2 54080  53.2168 171.8099 0001691  57.7412 302.3744 15.08832936 11439,6917.901999999999,95.438,540.937,538.597,0.0
54080.0,STARLINK-5160,PAYLOAD,2022-12-30 20:01:28,15.08837128,0.0001776,53.217,168.8362,57.8418,302.2746,5.434399999999999e-05,5.77e-06,0.0,0 STARLINK-5160,1 54080U 22136AF  22364.83435335  .00000577  00000-0  54344-4 0  9995,2 54080  53.2170 168.8362 0001776  57.8418 302.2746 15.08837128 11532,6917.889,95.438,540.9830000000002,538.526,0.0
54080.0,STARLINK-5160,PAYLOAD,2022-12-31 03:58:23,15.08841266,0.0001783,53.217,167.3494,59.0551,301.0616,7.5438e-05,9.13e-06,0.0,0 STARLINK-5160,1 54080U 22136AF  22365.16555027  .00000913  00000-0  75438-4 0  9994,2 54080  53.2170 167.3494 0001783  59.0551 301.0616 15.08841266 11106,6917.877,95.437,540.975,538.508,0.0
54080.0,STARLINK-5160,PAYLOAD,2022-12-31 16:41:28,15.08847386,0.0001814,53.217,164.9707,60.7609,299.3564,0.0001149,1.541e-05,0.0,0 STARLINK-5160,1 54080U 22136AF  22365.69546478  .00001541  00000-0  11490-3 0  9997,2 54080  53.2170 164.9707 0001814  60.7609 299.3564 15.08847386 11182,6917.858,95.437,540.9780000000002,538.4680000000002,0.0
54080.0,STARLINK-5160,PAYLOAD,2023-01-01 13:21:30,15.08829395,0.0001828,53.2172,161.1046,62.4358,297.6819,3.1681e-05,2.16e-06,0.0,0 STARLINK-5160,1 54080U 22136AF  23001.55659901  .00000216  00000-0  31681-4 0  9999,2 54080  53.2172 161.1046 0001828  62.4358 297.6819 15.08829395 11795,6917.913000000001,95.438,541.0419999999998,538.513,0.0
54080.0,STARLINK-5160,PAYLOAD,2023-01-01 16:32:16,15.08831126,0.0001876999999999,53.2174,160.5102,62.8659,297.2524,4.0436e-05,3.55e-06,0.0,0 STARLINK-5160,1 54080U 22136AF  23001.68907807  .00000355  00000-0  40436-4 0  9996,2 54080  53.2174 160.5102 0001877  62.8659 297.2524 15.08831126 11339,6917.908,95.438,541.071,538.474,0.0
54080.0,STARLINK-5160,PAYLOAD,2023-01-02 03:39:58,15.08837029,0.0001720999999999,53.2174,158.4286,62.771,297.3458,-1.3262e-06,-3.09e-06,0.0,0 STARLINK-5160,1 54080U 22136AF  23002.15275640 -.00000309  00000-0 -13262-5 0  9991,2 54080  53.2174 158.4286 0001721  62.7710 297.3458 15.08837029 11888,6917.889,95.438,540.945,538.564,0.0
54080.0,STARLINK-5160,PAYLOAD,2023-01-02 13:12:16,15.08844132,0.0001793,53.2173,156.6445,62.7801,297.3373,7.1294000000000016e-06,-1.75e-06,0.0,0 STARLINK-5160,1 54080U 22136AF  23002.55019113 -.00000175  00000-0  71294-5 0  9995,2 54080  53.2173 156.6445 0001793  62.7801 297.3373 15.08844132 11467,6917.868,95.437,540.9730000000002,538.492,0.0
54080.0,STARLINK-5160,PAYLOAD,2023-01-02 16:23:03,15.08831827,0.000158,53.2174,156.0498,62.7506,297.3647,0.00017883,2.559e-05,0.0,0 STARLINK-5160,1 54080U 22136AF  23002.68267467  .00002559  00000-0  17883-3 0  9995,2 54080  53.2174 156.0498 0001580  62.7506 297.3647 15.08831827 11489,6917.905,95.438,540.863,538.677,0.0
54080.0,STARLINK-5160,PAYLOAD,2023-01-03 03:30:44,15.08848347,0.0001505,53.2177,153.9681,73.0818,287.0339,2.23e-06,-2.53e-06,0.0,0 STARLINK-5160,1 54080U 22136AF  23003.14634502 -.00000253  00000-0  22300-5 0  9997,2 54080  53.2177 153.9681 0001505  73.0818 287.0339 15.08848347 12031,6917.855,95.437,540.761,538.679,0.0
54080.0,STARLINK-5160,PAYLOAD,2023-01-03 16:13:49,15.08838583,0.0001607,53.2175,151.5889,63.9559,296.1599,9.832e-05,1.277e-05,0.0,0 STARLINK-5160,1 54080U 22136AF  23003.67626908  .00001277  00000-0  98320-4 0  9996,2 54080  53.2175 151.5889 0001607  63.9559 296.1599 15.08838583 12115,6917.885,95.438,540.861,538.638,0.0
54080.0,STARLINK-5160,PAYLOAD,2023-01-03 19:24:35,15.08838465,0.0001641,53.2174,150.9945,63.219,296.897,0.00013214,1.816e-05,0.0,0 STARLINK-5160,1 54080U 22136AF  23003.80874849  .00001816  00000-0  13214-3 0  9997,2 54080  53.2174 150.9945 0001641  63.2190 296.8970 15.08838465 11659,6917.885,95.438,540.885,538.615,0.0
54080.0,STARLINK-5160,PAYLOAD,2023-01-04 16:04:36,15.08836479,0.0001666999999999,53.2171,147.1297,61.0868,299.0291,0.00014507,2.021e-05,0.0,0 STARLINK-5160,1 54080U 22136AF  23004.66987033  .00002021  00000-0  14507-3 0  9997,2 54080  53.2171 147.1297 0001667  61.0868 299.0291 15.08836479 11788,6917.891,95.438,540.909,538.6030000000002,0.0
54080.0,STARLINK-5160,PAYLOAD,2023-01-05 12:44:36,15.08852843,0.0001588999999999,53.218,143.2611,62.0005,298.1148,0.00012623,1.722e-05,0.0,0 STARLINK-5160,1 54080U 22136AF  23005.53097357  .00001722  00000-0  12623-3 0  9999,2 54080  53.2180 143.2611 0001589  62.0005 298.1148 15.08852843 12394,6917.840999999999,95.437,540.805,538.607,0.0
54080.0,STARLINK-5160,PAYLOAD,2023-01-05 15:55:22,15.08848908,0.0001628,53.2175,142.6681,56.2178,303.8969,0.00010039,1.31e-05,0.0,0 STARLINK-5160,1 54080U 22136AF  23005.66345650  .00001310  00000-0  10039-3 0  9997,2 54080  53.2175 142.6681 0001628  56.2178 303.8969 15.08848908 11939,6917.853,95.437,540.844,538.592,0.0
